NORAD_CAT_ID,OBJECT_NAME,OBJECT_TYPE,EPOCH,MEAN_MOTION,ECCENTRICITY,INCLINATION,RA_OF_ASC_NODE,ARG_OF_PERICENTER,MEAN_ANOMALY,BSTAR,MEAN_MOTION_DOT,MEAN_MOTION_DDOT,TLE_LINE0,TLE_LINE1,TLE_LINE2,SEMIMAJOR_AXIS,PERIOD,APOGEE,PERIGEE,DECAYED
52672.0,STARLINK-4073,PAYLOAD,2024-07-04 00:09:13,15.0884416,0.0001281,53.2187,29.0561,98.5295,261.5842,5.8002e-05,6.35e-06,0.0,0 STARLINK-4073,1 52672U 22053S   24186.00640297  .00000635  00000-0  58002-4 0  9996,2 52672  53.2187  29.0561 0001281  98.5295 261.5842 15.08844160117973,6917.868,95.437,540.619,538.846,0.0
52672.0,STARLINK-4073,PAYLOAD,2024-07-04 06:30:45,15.08843445,0.000117,53.2178,27.8657,85.4278,274.6848,4.8948e-05,4.91e-06,0.0,0 STARLINK-4073,1 52672U 22053S   24186.27136353  .00000491  00000-0  48948-4 0  9996,2 52672  53.2178  27.8657 0001170  85.4278 274.6848 15.08843445118436,6917.87,95.437,540.544,538.925,0.0
52672.0,STARLINK-4073,PAYLOAD,2024-07-04 20:49:12,15.08857367,9.63e-05,53.2171,25.1873,92.8538,267.2565,0.00018142,2.602e-05,0.0,0 STARLINK-4073,1 52672U 22053S   24186.86750938  .00002602  00000-0  18142-3 0  9990,2 52672  53.2171  25.1873 0000963  92.8538 267.2565 15.08857367118106,6917.827,95.436,540.358,539.026,0.0
52672.0,STARLINK-4073,PAYLOAD,2024-07-05 06:21:32,15.08847912,9.94e-05,53.2183,23.4026,84.5591,275.5514,6.7225e-05,7.83e-06,0.0,0 STARLINK-4073,1 52672U 22053S   24187.26495577  .00000783  00000-0  67225-4 0  9995,2 52672  53.2183  23.4026 0000994  84.5591 275.5514 15.08847912118168,6917.856,95.437,540.409,539.034,0.0
52672.0,STARLINK-4073,PAYLOAD,2024-07-05 20:40:00,15.0884255,9.12e-05,53.2171,20.7265,87.3644,272.7452,1.7653e-05,-7e-08,0.0,0 STARLINK-4073,1 52672U 22053S   24187.86112219 -.00000007  00000-0  17653-4 0  9990,2 52672  53.2171  20.7265 0000912  87.3644 272.7452 15.08842550118253,6917.873,95.437,540.369,539.107,0.0
52672.0,STARLINK-4073,PAYLOAD,2024-07-06 12:33:52,15.0883754,6.95e-05,53.2179,17.7526,92.3731,267.734,-3.2869e-05,-8.11e-06,0.0,0 STARLINK-4073,1 52672U 22053S   24188.52352482 -.00000811  00000-0 -32869-4 0  9992,2 52672  53.2179  17.7526 0000695  92.3731 267.7340 15.08837540118778,6917.888,95.438,540.234,539.272,0.0
52672.0,STARLINK-4073,PAYLOAD,2024-07-06 18:55:25,15.08844556,0.000107,53.2182,16.5658,86.6998,273.4117,-0.00012483,-2.274e-05,0.0,0 STARLINK-4073,1 52672U 22053S   24188.78848477 -.00002274  00000-0 -12483-3 0  9998,2 52672  53.2182  16.5658 0001070  86.6998 273.4117 15.08844556118810,6917.866,95.437,540.472,538.991,0.0
52672.0,STARLINK-4073,PAYLOAD,2024-07-07 06:03:06,15.08847408,0.0001139,53.2185,14.4846,82.3624,277.7498,-8.9916e-05,-1.719e-05,0.0,0 STARLINK-4073,1 52672U 22053S   24189.25216102 -.00001719  00000-0 -89916-4 0  9994,2 52672  53.2185  14.4846 0001139  82.3624 277.7498 15.08847408118463,6917.858,95.437,540.511,538.935,0.0
52672.0,STARLINK-4073,PAYLOAD,2024-07-07 18:46:12,15.08841134,0.0001149,53.2183,12.1057,92.0594,268.053,5.3478e-05,5.63e-06,0.0,0 STARLINK-4073,1 52672U 22053S   24189.78208415  .00000563  00000-0  53478-4 0  9998,2 52672  53.2183  12.1057 0001149  92.0594 268.0530 15.08841134118544,6917.877,95.437,540.537,538.947,0.0
52672.0,STARLINK-4073,PAYLOAD,2024-07-08 12:15:27,15.08834138,0.0001167,53.2178,8.8343,90.6781,269.4345,0.00010288,1.35e-05,0.0,0 STARLINK-4073,1 52672U 22053S   24190.51072965  .00001350  00000-0  10288-3 0  9996,2 52672  53.2178   8.8343 0001167  90.6781 269.4345 15.08834138118657,6917.898,95.438,540.571,538.956,0.0
52672.0,STARLINK-4073,PAYLOAD,2024-07-08 18:36:59,15.08837546,0.000115,53.2177,7.6458,84.5532,275.5591,0.00013372,1.841e-05,0.0,0 STARLINK-4073,1 52672U 22053S   24190.77568813  .00001841  00000-0  13372-3 0  9998,2 52672  53.2177   7.6458 0001150  84.5532 275.5591 15.08837546119117,6917.888,95.438,540.548,538.957,0.0
52672.0,STARLINK-4073,PAYLOAD,2024-07-09 12:06:14,15.08834578,0.0001129,53.2175,4.3754,82.6964,277.4157,3.6164e-05,2.88e-06,0.0,0 STARLINK-4073,1 52672U 22053S   24191.50433439  .00000288  00000-0  36164-4 0  9994,2 52672  53.2175   4.3754 0001129  82.6964 277.4157 15.08834578119225,6917.897,95.438,540.543,538.981,0.0
52672.0,STARLINK-4073,PAYLOAD,2024-07-09 18:27:46,15.08840588,0.0001184,53.219,3.1861,86.3303,273.7825,1.2932e-05,-8.2e-07,0.0,0 STARLINK-4073,1 52672U 22053S   24191.76929189 -.00000082  00000-0  12932-4 0  9994,2 52672  53.2190   3.1861 0001184  86.3303 273.7825 15.08840588118843,6917.879,95.438,540.563,538.925,0.0
52672.0,STARLINK-4073,PAYLOAD,2024-07-10 11:57:01,15.08838008,0.0001171,53.2187,359.9138,82.4194,277.6931,5.0173e-05,5.11e-06,0.0,0 STARLINK-4073,1 52672U 22053S   24192.49793402  .00000511  00000-0  50173-4 0  9997,2 52672  53.2187 359.9138 0001171  82.4194 277.6931 15.08838008119373,6917.886,95.438,540.562,538.941,0.0
52672.0,STARLINK-4073,PAYLOAD,2024-07-11 10:12:25,15.08841089,0.0001201,53.2192,355.75,82.6927,277.4201,8.812e-05,1.115e-05,0.0,0 STARLINK-4073,1 52672U 22053S   24193.42529233  .00001115  00000-0  88120-4 0  9994,2 52672  53.2192 355.7500 0001201  82.6927 277.4201 15.08841089119513,6917.877,95.437,540.573,538.911,0.0
52672.0,STARLINK-4073,PAYLOAD,2024-07-11 14:58:34,15.08842954,0.0001173,53.2191,354.8588,86.3308,273.7818,0.0001001,1.306e-05,0.0,0 STARLINK-4073,1 52672U 22053S   24193.62401041  .00001306  00000-0  10010-3 0  9996,2 52672  53.2191 354.8588 0001173  86.3308 273.7818 15.08842954119122,6917.871,95.437,540.548,538.925,0.0
52672.0,STARLINK-4073,PAYLOAD,2024-07-12 14:49:21,15.08839686,0.0001431,53.2175,350.3985,84.507,275.6085,5.7523e-05,6.28e-06,0.0,0 STARLINK-4073,1 52672U 22053S   24194.61761542  .00000628  00000-0  57523-4 0  9998,2 52672  53.2175 350.3985 0001431  84.5070 275.6085 15.08839686119696,6917.881,95.438,540.736,538.756,0.0
52672.0,STARLINK-4073,PAYLOAD,2024-07-12 18:00:07,15.08845922,0.0001044,53.2178,349.8023,75.6321,284.4787,0.0001122,1.499e-05,0.0,0 STARLINK-4073,1 52672U 22053S   24194.75008973  .00001499  00000-0  11220-3 0  9995,2 52672  53.2178 349.8023 0001044  75.6321 284.4787 15.08845922119298,6917.862,95.437,540.45,539.005,0.0
52672.0,STARLINK-4073,PAYLOAD,2024-07-13 09:53:59,15.08838964,0.0001074,53.2184,346.8311,74.6814,285.4296,3.1682e-05,2.16e-06,0.0,0 STARLINK-4073,1 52672U 22053S   24195.41249601  .00000216  00000-0  31682-4 0  9995,2 52672  53.2184 346.8311 0001074  74.6814 285.4296 15.08838964119396,6917.884,95.438,540.492,539.006,0.0
52672.0,STARLINK-4073,PAYLOAD,2024-07-13 14:40:08,15.08841962,0.0001238,53.2177,345.9381,66.3378,293.7744,2.8901e-05,1.72e-06,0.0,0 STARLINK-4073,1 52672U 22053S   24195.61121511  .00000172  00000-0  28901-4 0  9997,2 52672  53.2177 345.9381 0001238  66.3378 293.7744 15.08841962119842,6917.874,95.437,540.596,538.883,0.0
52672.0,STARLINK-4073,PAYLOAD,2024-07-13 17:50:54,15.0885191,9.76e-05,53.2181,345.3417,74.9409,285.1691,9.204e-05,1.178e-05,0.0,0 STARLINK-4073,1 52672U 22053S   24195.74368589  .00001178  00000-0  92040-4 0  9991,2 52672  53.2181 345.3417 0000976  74.9409 285.1691 15.08851910119445,6917.844,95.437,540.384,539.034,0.0
52672.0,STARLINK-4073,PAYLOAD,2024-07-14 03:23:13,15.08845989,9.46e-05,53.2181,343.5596,83.1419,276.9681,3.6905e-05,3e-06,0.0,0 STARLINK-4073,1 52672U 22053S   24196.14113013  .00000300  00000-0  36905-4 0  9990,2 52672  53.2181 343.5596 0000946  83.1419 276.9681 15.08845989119506,6917.862,95.437,540.382,539.073,0.0
52672.0,STARLINK-4073,PAYLOAD,2024-07-14 14:30:55,15.0884158,0.0001351,53.2184,341.4776,79.8666,280.2479,9.7749e-05,1.268e-05,0.0,0 STARLINK-4073,1 52672U 22053S   24196.60481335  .00001268  00000-0  97749-4 0  9993,2 52672  53.2184 341.4776 0001351  79.8666 280.2479 15.08841580119992,6917.876,95.437,540.675,538.806,0.0
52672.0,STARLINK-4073,PAYLOAD,2024-07-14 19:17:04,15.08852469,0.000126,53.218,340.5819,98.9558,261.1577,9.008e-05,1.146e-05,0.0,0 STARLINK-4073,1 52672U 22053S   24196.80352505  .00001146  00000-0  90080-4 0  9997,2 52672  53.2180 340.5819 0001260  98.9558 261.1577 15.08852469120028,6917.842,95.437,540.579,538.836,0.0
52672.0,STARLINK-4073,PAYLOAD,2024-07-15 03:14:01,15.08838099,0.0001373,53.2189,339.1002,74.9886,285.1258,4.2909e-05,3.95e-06,0.0,0 STARLINK-4073,1 52672U 22053S   24197.13473661  .00000395  00000-0  42909-4 0  9993,2 52672  53.2189 339.1002 0001373  74.9886 285.1258 15.08838099119650,6917.886,95.438,540.701,538.801,0.0
52672.0,STARLINK-4073,PAYLOAD,2024-07-15 14:21:43,15.08835248,0.0001205,53.2175,337.0177,85.5377,274.5753,6.2618e-05,7.09e-06,0.0,0 STARLINK-4073,1 52672U 22053S   24197.59841912  .00000709  00000-0  62618-4 0  9999,2 52672  53.2175 337.0177 0001205  85.5377 274.5753 15.08835248120143,6917.895,95.438,540.594,538.926,0.0
52672.0,STARLINK-4073,PAYLOAD,2024-07-15 15:57:06,15.08836823,0.0001123,53.2181,336.7208,84.4625,275.6495,8.8664e-05,1.123e-05,0.0,0 STARLINK-4073,1 52672U 22053S   24197.66465776  .00001123  00000-0  88664-4 0  9997,2 52672  53.2181 336.7208 0001123  84.4625 275.6495 15.08836823120150,6917.89,95.438,540.532,538.978,0.0
52672.0,STARLINK-4073,PAYLOAD,2024-07-16 12:37:06,15.08841222,0.000125,53.2198,332.8534,93.1832,266.9303,6.7012e-05,7.79e-06,0.0,0 STARLINK-4073,1 52672U 22053S   24198.52577469  .00000779  00000-0  67012-4 0  9996,2 52672  53.2198 332.8534 0001250  93.1832 266.9303 15.08841222119861,6917.877,95.437,540.606,538.877,0.0
52672.0,STARLINK-4073,PAYLOAD,2024-07-16 14:12:29,15.08842669,0.0001264,53.2197,332.5561,92.5878,267.5259,8.033e-05,9.91e-06,0.0,0 STARLINK-4073,1 52672U 22053S   24198.59201360  .00000991  00000-0  80330-4 0  9991,2 52672  53.2197 332.5561 0001264  92.5878 267.5259 15.08842669120297,6917.872,95.437,540.612,538.863,0.0
52672.0,STARLINK-4073,PAYLOAD,2024-07-16 15:47:52,15.088491,0.0001368,53.2189,332.2578,93.5037,266.6112,6.2768e-05,7.11e-06,0.0,0 STARLINK-4073,1 52672U 22053S   24198.65825109  .00000711  00000-0  62768-4 0  9996,2 52672  53.2189 332.2578 0001368  93.5037 266.6112 15.08849100120303,6917.853,95.437,540.664,538.771,0.0
